STARLINK-1904
1 28389C 21038AN  21325.11892460  .00002975  00000-0  19928-3 0  3258
2 28389  53.0525 187.6825 0001932  78.8657 135.2197 15.06402201    17
